{
    "type": "Feature",
    "properties": {
        "id": "Toronto-Street-Names-Centreline",
        "name": "Toronto Street Names (Centreline)",
        "type": "tms",
        "category": "qa",
        "url": "https://skfd.github.io/toronto-streets-layer/tiles/raster/{zoom}/{x}/{y}.png",
        "min_zoom": 14,
        "max_zoom": 21,
        "overlay": true,
        "permission_osm": "implicit",
        "license_url": "https://osmfoundation.org/wiki/OGL_Canada_and_local_variants",
        "privacy_policy_url": "https://docs.github.com/en/site-policy/privacy-policies/github-general-privacy-statement",
        "attribution": {
            "url": "https://open.toronto.ca/open-data-licence/",
            "text": "Contains information licensed under the Open Government Licence – Toronto",
            "required": true
        },
        "country_code": "CA",
        "description": "Street names from the City of Toronto Centreline (TCL) open dataset, rendered as transparent label tiles for use as a reference overlay while mapping streets. Rebuilt daily. Not for automated import.",
        "valid-georeference": true
    },
    "geometry": {
        "type": "Polygon",
        "coordinates": [
            [
                [
                    -79.60820047554,
                    43.66669181335
                ],
                [
                    -79.62838279951,
                    43.64632003437
                ],
                [
                    -79.59502718582,
                    43.6149909449
                ],
                [
                    -79.54930686221,
                    43.56818407942
                ],
                [
                    -79.49638380897,
                    43.57915018797
                ],
                [
                    -79.45276402888,
                    43.61757583532
                ],
                [
                    -79.38912460412,
                    43.60060559501
                ],
                [
                    -79.3053028554,
                    43.60437717331
                ],
                [
                    -79.29667653951,
                    43.64325778233
                ],
                [
                    -79.11405954805,
                    43.76550890763
                ],
                [
                    -79.0964810694,
                    43.79817641747
                ],
                [
                    -79.12870752071,
                    43.8184964976
                ],
                [
                    -79.13798487931,
                    43.82237181955
                ],
                [
                    -79.15930652801,
                    43.8687387237
                ],
                [
                    -79.65403786986,
                    43.7575151077
                ],
                [
                    -79.65293978144,
                    43.74768007389
                ],
                [
                    -79.60820047554,
                    43.66669181335
                ]
            ]
        ]
    }
}
